IRIDIUM 63              
1 25286U 98021B   25336.18013216  .00000477  00000+0  15536-3 0  9994
2 25286  86.3994  11.6458 0002407  93.2597 266.8876 14.36722575447962
IRIDIUM 69              
1 25319U 98026A   25336.23094240  .00000765  00000+0  23118-3 0  9993
2 25319  86.3989  24.3811 0003098 144.4016 215.7391 14.41199603447263
IRIDIUM 71              
1 25320U 98026B   25336.14904926  .00000363  00000+0  10620-3 0  9994
2 25320  86.3987  19.0894 0000743 165.7865 194.3356 14.41307854447786
IRIDIUM 73              
1 25344U 98032C   25336.09689875  .00000818  00000+0  19777-3 0  9991
2 25344  86.4401 335.5134 0002742 102.4215 257.7298 14.51965605454923
IRIDIUM 82              
1 25467U 98051A   25336.16223812  .00046221  00000+0  88976-3 0  9996
2 25467  86.3634  26.4291 0063924  16.3391 343.9906 15.45427597449760
